NEPT-1                  
1 48966U 21059CR  24020.66849004  .00046082  00000+0  10656-2 0  9994
2 48966  97.6037 167.3180 0003831 213.0256 147.0751 15.42346228142703
JILIN-1 GAOFEN 3D01     
1 49004U 21061B   24020.79462458  .00017232  00000+0  72547-3 0  9992
2 49004  97.4206  86.8754 0008693 312.0981  47.9516 15.23397515140980
JILIN-1 GAOFEN 3D03     
1 49006U 21061D   24020.80256403  .00014239  00000+0  66182-3 0  9999
2 49006  97.4191  84.8468 0010247   5.4999 354.6346 15.20041001140853
XINGSHIDAI 10           
1 49007U 21061E   24020.80186661  .00013931  00000+0  65022-3 0  9998
2 49007  97.4197  84.7641 0010678 349.5984  10.5028 15.19897325140846
FENGYUN 3E              
1 49008U 21062A   24020.85645226  .00000081  00000+0  59018-4 0  9993
2 49008  98.7295  24.1487 0002616  95.3359 264.8115 14.19723636131945
IT-SPINS                
1 49017U 21013G   24020.54204225  .00252638  00000+0  14119-2 0  9993
2 49017  51.5781  72.9245 0007791  25.8864 334.2525 15.78051356143526
ISS (NAUKA)             
1 49044U 21066A   24020.42761635  .00023521  00000+0  42405-3 0  9998
2 49044  51.6417 332.4645 0005091 108.4197 350.8424 15.49642494435487
BRO-4                   
1 49066U 21073A   24020.78781637  .00022495  00000+0  91052-3 0  9994
2 49066  97.4658  96.6158 0021968  67.1112 293.2442 15.24476885134098
RADCUBE                 
1 49067U 21073B   24020.19860312  .00047512  00000+0  14525-2 0  9994
2 49067  97.4600  98.1019 0016692  67.1299 293.1704 15.33578308134131
SUNSTORM                
1 49068U 21073C   24020.69028260  .00043314  00000+0  13792-2 0  9999
2 49068  97.4631  98.0701 0016936  68.8817 291.4233 15.32297536134169
LEDSAT                  
1 49069U 21073D   24020.72815571  .00015532  00000+0  73017-3 0  9991
2 49069  97.4583  93.3599 0022800  84.6727 275.7108 15.19442669133879
STARLINK-3100           
1 49144U 21082Q   24020.61259188  .00000425  00000+0  43439-4 0  9990
2 49144  70.0010  98.7788 0002586 253.1831 106.9044 14.98329160129282
CUTE                    
1 49263U 21088D   24020.74851069  .00015079  00000+0  82926-3 0  9992
2 49263  97.5192  88.2497 0014883 232.0449 127.9439 15.14073212127141
2021-091B               
1 49316U 21091B   24020.78759449  .00006871  00000+0  33381-3 0  9999
2 49316  97.4547 210.3344 0001518 299.8956  60.2127 15.18760847125699
2021-091H               
1 49322U 21091H   24020.79903596  .00019872  00000+0  64391-3 0  9991
2 49322  97.4476 215.4229 0010868 243.6110 116.4017 15.31987994126043
2021-091K               
1 49324U 21091K   24020.77481246  .00119567  00000+0  19588-2 0  9993
2 49324  97.4137 219.3017 0005943 233.9738 126.0964 15.52034678126428
SDGSAT 1                
1 49387U 21100A   24020.81958414  .00005479  00000+0  26413-3 0  9996
2 49387  97.3891  82.5845 0002500 114.4200 245.7295 15.19114512122527
ASTERISC                
1 49395U 21102A   24020.11267102  .00023735  00000+0  12320-2 0  9993
2 49395  97.4591  73.5264 0013284  30.7006 329.5001 15.16044107120651
TEIKYOSAT-4 (OORURI)    
1 49396U 21102B   24020.59974189  .00003181  00000+0  23775-3 0  9996
2 49396  97.4857  70.6374 0015370  65.9340 294.3492 15.03387376120428
Z-SAT                   
1 49399U 21102E   24020.79197032  .00005107  00000+0  34552-3 0  9990
2 49399  97.4566  72.0990 0022507  49.8912 310.4284 15.06745376120637
HIBARI                  
1 49400U 21102F   24020.69596721  .00008793  00000+0  55146-3 0  9996
2 49400  97.4545  73.0627 0019543  39.9590 320.3073 15.09393761120707
KOSEN-1                 
1 49402U 21102H   24020.63578807  .00007153  00000+0  45209-3 0  9995
2 49402  97.4486  72.9262 0020642  36.4335 323.8294 15.09155916120720
GLOBAL-14               
1 49469U 21106A   24020.48207665  .00028730  00000+0  73444-3 0  9992
2 49469  42.0126  20.9089 0001586  92.7736 267.3286 15.38862425122745
GLOBAL-15               
1 49470U 21106B   24020.54750795  .00037687  00000+0  74503-3 0  9996
2 49470  42.0028  58.2308 0021784  73.2581 287.0650 15.46165830122323
GAOFEN-3 02             
1 49495U 21109A   24020.79207967  .00000201  00000+0  74397-4 0  9995
2 49495  98.4141  30.1522 0002243  90.5352 269.6095 14.42143977113709
GLOBAL-12               
1 49772U 21115BA  24020.37552240  .00023921  00000+0  61668-3 0  9991
2 49772  53.2094 229.2048 0002534 108.4650 251.6631 15.39090909120416
GLOBAL-13               
1 49773U 21115BB  24020.21798483  .00021249  00000+0  55320-3 0  9995
2 49773  53.2053 231.1339 0001071 341.0189  19.0776 15.38864794120375
2021-117A               
1 49812U 21117A   24020.76294320  .00063806  00000+0  86167-3 0  9990
2 49812  97.3305 110.2946 0006040  41.4631 318.7082 15.57548615118977
JINZIJING 1 03          
1 49813U 21117B   24020.69749436  .00378444  00000+0  14792-2 0  9997
2 49813  97.3137 110.7489 0004506 336.9038  23.2029 15.86075731119028
GLOBAL-17               
1 49949U 21120A   24019.72949590  .00026830  00000+0  70049-3 0  9993
2 49949  42.0044 152.4337 0009348 329.0234  31.0053 15.38203796119303
GLOBAL-16               
1 49950U 21120B   24020.60722822  .00027819  00000+0  71848-3 0  9997
2 49950  42.0046 146.8803 0009244 339.6374  20.4096 15.38522782119431
XW-3 (CAS-9)            
1 50466U 21131B   24020.79189650  .00001064  00000+0  35671-3 0  9997
2 50466  98.5380 106.5634 0003921 195.8326 164.2740 14.39312132108653
UMBRA-02                
1 50986U 22002C   24020.18295468  .00039014  00000+0  18772-2 0  9998
2 50986  97.4152  87.5166 0000337 181.1901 178.9332 15.18666267111616
TEVEL-3                 
1 50988U 22002E   24020.74877098  .00051712  00000+0  13200-2 0  9997
2 50988  97.4050  92.7994 0005151 174.3803 185.7501 15.39312421112052
TEVEL-8                 
1 50989U 22002F   24020.77854063  .00050717  00000+0  12989-2 0  9995
2 50989  97.4068  92.9111 0005102 171.8280 188.3049 15.39216213112050
ION SCV-004             
1 50993U 22002K   24020.60395639  .00005923  00000+0  30632-3 0  9996
2 50993  97.4117  84.8500 0007922 189.1815 170.9274 15.16596033111489
TEVEL-5                 
1 50998U 22002Q   24020.79213754  .00057062  00000+0  13760-2 0  9991
2 50998  97.4044  93.5896 0005912 166.9451 193.1949 15.41017048112113
TEVEL-6                 
1 50999U 22002R   24020.79196013  .00059332  00000+0  14315-2 0  9999
2 50999  97.4042  93.5763 0005913 166.7167 193.4236 15.40990350112115
TEVEL-1                 
1 51013U 22002AF  24020.76726424  .00048008  00000+0  12297-2 0  9994
2 51013  97.4042  92.7173 0004960 173.3923 186.7389 15.39225950112056
SANOSAT-1               
1 51031U 22002AZ  24020.65189065  .00645159  00000+0  26294-2 0  9998
2 51031  97.4059 101.5551 0003634 276.8211  83.2645 15.84558552112546
IRIS-A                  
1 51044U 22002BN  24020.15795805  .00018052  00000+0  71865-3 0  9993
2 51044  97.4078  87.7802 0006594 189.3746 170.7370 15.25285613111663
FLOCK 4X-28             
1 51045U 22002BP  24020.20566121  .00043058  00000+0  96727-3 0  9995
2 51045  97.4050  95.4534 0006333 144.3246 215.8426 15.43215022112165
FLOCK 4X-19             
1 51046U 22002BQ  24020.58918643  .00062531  00000+0  97240-3 0  9995
2 51046  97.4022  99.3272 0002868 136.9534 223.1944 15.53720443112439
KEPLER-19               
1 51051U 22002BV  24020.17695604  .00015398  00000+0  66614-3 0  9995
2 51051  97.4124  86.8174 0007018 195.9111 164.1906 15.22510558111585
ETV-A1                  
1 51060U 22002CE  24020.73965173  .00008184  00000+0  39681-3 0  9997
2 51060  97.4139  86.2364 0007616 214.9849 145.0886 15.18744482111574
BRO-5                   
1 51061U 22002CF  24020.79139564  .00012631  00000+0  59409-3 0  9993
2 51061  97.4189  87.3766 0007675 216.8361 143.2348 15.19680734111633
TEVEL-7                 
1 51062U 22002CG  24020.70972525  .00048854  00000+0  12494-2 0  9995
2 51062  97.4061  92.8121 0005084 172.5805 187.5516 15.39269015112043
TEVEL-4                 
1 51063U 22002CH  24020.79316284  .00053803  00000+0  13810-2 0  9992
2 51063  97.4061  92.8452 0005075 171.6878 188.4452 15.39132556112050
TEVEL-2                 
1 51069U 22002CP  24020.74907887  .00050535  00000+0  12895-2 0  9999
2 51069  97.4047  92.7666 0005116 174.0678 186.0629 15.39328989112054
VZLUSAT-2               
1 51085U 22002DF  24020.71383947  .00014558  00000+0  62793-3 0  9997
2 51085  97.4115  87.1147 0010785 207.5562 152.5104 15.22594251111641
L-SAR 01A               
1 51284U 22007A   24020.79450043  .00001561  00000+0  17426-3 0  9996
2 51284  97.8104  29.7927 0001612  89.1363 271.0039 14.88418947107810
INSPIRESAT-1            
1 51657U 22013B   24020.59110133  .00009600  00000+0  42343-3 0  9996
2 51657  97.5415  36.7487 0008938 342.1416  17.9504 15.21961629106938
INS-2TD                 
1 51658U 22013C   24020.55669103  .00030574  00000+0  97844-3 0  9999
2 51658  97.5361  40.0171 0006382 338.3868  21.7103 15.32335683107156
L-SAR 01B               
1 51822U 22018A   24020.82803079  .00001622  00000+0  18081-3 0  9997
2 51822  97.8109  29.7963 0001371  89.0247 271.1127 14.88418901103056
2022-019D               
1 51827U 22019D   24020.78194685  .00010261  00000+0  50308-3 0  9991
2 51827  97.4529  94.6983 0014890  42.3224 317.9156 15.18219147104702
2022-019G               
1 51830U 22019G   24020.78777954  .00039632  00000+0  12664-2 0  9996
2 51830  97.4478  99.0700 0011912  34.0117 326.1886 15.32277322105018
JILIN-1 GAOFEN 03D14    
1 51831U 22019H   24020.77538798  .00014642  00000+0  64938-3 0  9993
2 51831  97.4521  96.1918 0017102  37.9149 322.3287 15.21562003104801
2022-019J               
1 51832U 22019J   24020.78865796  .00003354  00000+0  19076-3 0  9997
2 51832  97.4522  93.1202 0011058  55.4381 304.7893 15.13496570104604
JILIN-1 GAOFEN 03D16    
1 51834U 22019L   24020.76776910  .00015425  00000+0  68516-3 0  9991
2 51834  97.4526  96.2344 0014767  46.8943 313.3526 15.21531002104809
